CSS (TIANHE)            
1 48274U 21035A   23279.10560176  .00060256  00000+0  62108-3 0  9993
2 48274  41.4725 200.7442 0010496 197.2523 162.7962 15.63847534139178
